start=new Date('2023-05-11T00:00:00.000Z').valueOf();
sats=[{"RCS_SIZE":"LARGE","OBJECT_ID":"2021-009AP","REF_FRAME":"TEME","GP_ID":"231565190","MEAN_MOTION_DDOT":"0.0000000000000","TIME_SYSTEM":"UTC","NORAD_CAT_ID":"47585","MEAN_MOTION_DOT":"0.00036532","RA_OF_ASC_NODE":"342.8913","CLASSIFICATION_TYPE":"U","FILE":"3904830","COUNTRY_CODE":"US","OBJECT_TYPE":"PAYLOAD","CENTER_NAME":"EARTH","TLE_LINE1":"1 47585U 21009AP  23130.80866617  .00036532  00000-0  24554-2 0  9993","APOAPSIS":"548.022","PERIAPSIS":"546.093","SEMIMAJOR_AXIS":"6925.193","OBJECT_NAME":"STARLINK-1989","ECCENTRICITY":"0.00013930","ARG_OF_PERICENTER":"70.2951","ELEMENT_SET_NO":"999","EPOCH":"2023-05-10T19:24:28.757088","LAUNCH_DATE":"2021-02-04","EPHEMERIS_TYPE":"0","SITE":"AFETR","DECAY_DATE":null,"MEAN_ANOMALY":"289.8188","MEAN_ELEMENT_THEORY":"SGP4","REV_AT_EPOCH":"12496","TLE_LINE2":"2 47585  53.0546 342.8913 0001393  70.2951 289.8188 15.06450872124968","MEAN_MOTION":"15.06450872","PERIOD":"95.589","BSTAR":"0.00245540000000","INCLINATION":"53.0546"},{"RA_OF_ASC_NODE":"2.9619","CLASSIFICATION_TYPE":"U","NORAD_CAT_ID":"47586","MEAN_MOTION_DOT":"0.00023870","TIME_SYSTEM":"UTC","GP_ID":"231564939","MEAN_MOTION_DDOT":"0.0000000000000","OBJECT_ID":"2021-009AQ","REF_FRAME":"TEME","RCS_SIZE":"LARGE","TLE_LINE1":"1 47586U 21009AQ  23130.79207886  .00023870  00000-0  16139-2 0  9990","APOAPSIS":"548.017","COUNTRY_CODE":"US","OBJECT_TYPE":"PAYLOAD","CENTER_NAME":"EARTH","FILE":"3904830","EPHEMERIS_TYPE":"0","LAUNCH_DATE":"2021-02-04","EPOCH":"2023-05-10T19:00:35.613504","ELEMENT_SET_NO":"999","ARG_OF_PERICENTER":"96.0513","SEMIMAJOR_AXIS":"6925.204","OBJECT_NAME":"STARLINK-1990","ECCENTRICITY":"0.00013690","PERIAPSIS":"546.121","INCLINATION":"53.0546","BSTAR":"0.00161390000000","MEAN_MOTION":"15.06447215","PERIOD":"95.589","REV_AT_EPOCH":"12468","TLE_LINE2":"2 47586  53.0546   2.9619 0001369  96.0513 264.0632 15.06447215124684","MEAN_ANOMALY":"264.0632","DECAY_DATE":null,"MEAN_ELEMENT_THEORY":"SGP4","SITE":"AFETR"},{"PERIAPSIS":"546.460","ARG_OF_PERICENTER":"91.9804","SEMIMAJOR_AXIS":"6925.189","ECCENTRICITY":"0.00008580","OBJECT_NAME":"STARLINK-1991","EPOCH":"2023-05-10T20:29:29.586624","ELEMENT_SET_NO":"999","EPHEMERIS_TYPE":"0","LAUNCH_DATE":"2021-02-04","MEAN_ELEMENT_THEORY":"SGP4","DECAY_DATE":null,"MEAN_ANOMALY":"268.1283","SITE":"AFETR","PERIOD":"95.589","MEAN_MOTION":"15.06452149","TLE_LINE2":"2 47587  53.0544 332.6897 0000858  91.9804 268.1283 15.06452149125111","REV_AT_EPOCH":"12511","INCLINATION":"53.0544","BSTAR":"0.00184720000000","RCS_SIZE":"LARGE","MEAN_MOTION_DDOT":"0.0000000000000","GP_ID":"231565691","REF_FRAME":"TEME","OBJECT_ID":"2021-009AR","MEAN_MOTION_DOT":"0.00027379","NORAD_CAT_ID":"47587","TIME_SYSTEM":"UTC","CLASSIFICATION_TYPE":"U","RA_OF_ASC_NODE":"332.6897","FILE":"3904830","APOAPSIS":"547.648","TLE_LINE1":"1 47587U 21009AR  23130.85381466  .00027379  00000-0  18472-2 0  9995","OBJECT_TYPE":"PAYLOAD","CENTER_NAME":"EARTH","COUNTRY_CODE":"US"},{"TLE_LINE2":"2 47588  53.0531 343.0288 0001133  82.8121 277.2997 15.06415708124961","REV_AT_EPOCH":"12496","PERIOD":"95.591","MEAN_MOTION":"15.06415708","BSTAR":"0.00148370000000","INCLINATION":"53.0531","SITE":"AFETR","MEAN_ELEMENT_THEORY":"SGP4","DECAY_DATE":null,"MEAN_ANOMALY":"277.2997","ELEMENT_SET_NO":"999","EPOCH":"2023-05-10T18:42:00.786528","LAUNCH_DATE":"2021-02-04","EPHEMERIS_TYPE":"0","PERIAPSIS":"546.381","SEMIMAJOR_AXIS":"6925.300","ECCENTRICITY":"0.00011330","OBJECT_NAME":"STARLINK-1993","ARG_OF_PERICENTER":"82.8121","FILE":"3904830","OBJECT_TYPE":"PAYLOAD","CENTER_NAME":"EARTH","COUNTRY_CODE":"US","APOAPSIS":"547.950","TLE_LINE1":"1 47588U 21009AS  23130.77917577  .00021897  00000-0  14837-2 0  9995","TIME_SYSTEM":"UTC","MEAN_MOTION_DOT":"0.00021897","NORAD_CAT_ID":"47588","CLASSIFICATION_TYPE":"U","RA_OF_ASC_NODE":"343.0288","RCS_SIZE":"LARGE","REF_FRAME":"TEME","OBJECT_ID":"2021-009AS","MEAN_MOTION_DDOT":"0.0000000000000","GP_ID":"231565942"},{"OBJECT_NAME":"STARLINK-1994","SEMIMAJOR_AXIS":"6925.166","ECCENTRICITY":"0.00010970","ARG_OF_PERICENTER":"61.5144","PERIAPSIS":"546.271","LAUNCH_DATE":"2021-02-04","EPHEMERIS_TYPE":"0","ELEMENT_SET_NO":"999","EPOCH":"2023-05-10T20:44:06.093888","SITE":"AFETR","MEAN_ELEMENT_THEORY":"SGP4","DECAY_DATE":null,"MEAN_ANOMALY":"298.5955","BSTAR":"0.00243750000000","INCLINATION":"53.0546","TLE_LINE2":"2 47589  53.0546 342.6411 0001097  61.5144 298.5955 15.06459517124976","REV_AT_EPOCH":"12497","PERIOD":"95.588","MEAN_MOTION":"15.06459517","REF_FRAME":"TEME","OBJECT_ID":"2021-009AT","MEAN_MOTION_DDOT":"0.0000000000000","GP_ID":"231564690","RCS_SIZE":"LARGE","CLASSIFICATION_TYPE":"U","RA_OF_ASC_NODE":"342.6411","TIME_SYSTEM":"UTC","MEAN_MOTION_DOT":"0.00036271","NORAD_CAT_ID":"47589","OBJECT_TYPE":"PAYLOAD","CENTER_NAME":"EARTH","COUNTRY_CODE":"US","APOAPSIS":"547.791","TLE_LINE1":"1 47589U 21009AT  23130.86395942  .00036271  00000-0  24375-2 0  9992","FILE":"3904830"},{"RA_OF_ASC_NODE":"2.3843","CLASSIFICATION_TYPE":"U","TIME_SYSTEM":"UTC","NORAD_CAT_ID":"47590","MEAN_MOTION_DOT":"0.00038067","OBJECT_ID":"2021-009AU","REF_FRAME":"TEME","GP_ID":"231565440","MEAN_MOTION_DDOT":"0.0000000000000","RCS_SIZE":"LARGE","COUNTRY_CODE":"US","OBJECT_TYPE":"PAYLOAD","CENTER_NAME":"EARTH","TLE_LINE1":"1 47590U 21009AU  23130.92108344  .00038067  00000-0  25554-2 0  9994","APOAPSIS":"547.716","FILE":"3904830","LAUNCH_DATE":"2021-02-04","EPHEMERIS_TYPE":"0","ELEMENT_SET_NO":"999","EPOCH":"2023-05-10T22:06:21.609216","ECCENTRICITY":"0.00010700","SEMIMAJOR_AXIS":"6925.111","OBJECT_NAME":"STARLINK-1995","ARG_OF_PERICENTER":"84.1152","PERIAPSIS":"546.235","BSTAR":"0.00255540000000","INCLINATION":"53.0546","REV_AT_EPOCH":"12470","TLE_LINE2":"2 47590  53.0546   2.3843 0001070  84.1152 275.9959 15.06477675124707","MEAN_MOTION":"15.06477675","PERIOD":"95.587","SITE":"AFETR","MEAN_ANOMALY":"275.9959","DECAY_DATE":null,"MEAN_ELEMENT_THEORY":"SGP4"},{"PERIAPSIS":"546.304","ARG_OF_PERICENTER":"97.9889","SEMIMAJOR_AXIS":"6925.165","ECCENTRICITY":"0.00010480","OBJECT_NAME":"STARLINK-1996","EPOCH":"2023-05-10T20:38:47.105952","ELEMENT_SET_NO":"999","EPHEMERIS_TYPE":"0","LAUNCH_DATE":"2021-02-04","DECAY_DATE":null,"MEAN_ANOMALY":"262.1218","MEAN_ELEMENT_THEORY":"SGP4","SITE":"AFETR","MEAN_MOTION":"15.06459915","PERIOD":"95.588","REV_AT_EPOCH":"12557","TLE_LINE2":"2 47591  53.0541 342.6581 0001048  97.9889 262.1218 15.06459915125575","INCLINATION":"53.0541","BSTAR":"0.00193530000000","RCS_SIZE":"LARGE","GP_ID":"231542431","MEAN_MOTION_DDOT":"0.0000000000000","OBJECT_ID":"2021-009AV","REF_FRAME":"TEME","NORAD_CAT_ID":"47591","MEAN_MOTION_DOT":"0.00028709","TIME_SYSTEM":"UTC","RA_OF_ASC_NODE":"342.6581","CLASSIFICATION_TYPE":"U","FILE":"3904736","TLE_LINE1":"1 47591U 21009AV  23130.86026743  .00028709  00000-0  19353-2 0  9992","APOAPSIS":"547.756","COUNTRY_CODE":"US","OBJECT_TYPE":"PAYLOAD","CENTER_NAME":"EARTH"},{"REF_FRAME":"TEME","OBJECT_ID":"2021-009AW","MEAN_MOTION_DDOT":"0.0000000000000","GP_ID":"231566443","RCS_SIZE":"LARGE","CLASSIFICATION_TYPE":"U","RA_OF_ASC_NODE":"3.1141","TIME_SYSTEM":"UTC","MEAN_MOTION_DOT":"0.00029271","NORAD_CAT_ID":"47592","OBJECT_TYPE":"PAYLOAD","CENTER_NAME":"EARTH","COUNTRY_CODE":"US","APOAPSIS":"547.824","TLE_LINE1":"1 47592U 21009AW  23130.75890671  .00029271  00000-0  19734-2 0  9998","FILE":"3904830","ECCENTRICITY":"0.00010820","SEMIMAJOR_AXIS":"6925.209","OBJECT_NAME":"STARLINK-1997","ARG_OF_PERICENTER":"111.6400","PERIAPSIS":"546.325","LAUNCH_DATE":"2021-02-04","EPHEMERIS_TYPE":"0","ELEMENT_SET_NO":"999","EPOCH":"2023-05-10T18:12:49.539744","SITE":"AFETR","MEAN_ELEMENT_THEORY":"SGP4","MEAN_ANOMALY":"248.4704","DECAY_DATE":null,"BSTAR":"0.00197340000000","INCLINATION":"53.0548","TLE_LINE2":"2 47592  53.0548   3.1141 0001082 111.6400 248.4704 15.06445416124673","REV_AT_EPOCH":"12467","PERIOD":"95.589","MEAN_MOTION":"15.06445416"},{"LAUNCH_DATE":"2021-02-04","EPHEMERIS_TYPE":"0","ELEMENT_SET_NO":"999","EPOCH":"2023-05-10T19:05:54.824352","SEMIMAJOR_AXIS":"6925.211","ECCENTRICITY":"0.00011850","OBJECT_NAME":"STARLINK-1998","ARG_OF_PERICENTER":"64.8757","PERIAPSIS":"546.255","BSTAR":"0.00179590000000","INCLINATION":"53.0535","REV_AT_EPOCH":"12468","TLE_LINE2":"2 47593  53.0535   2.9525 0001185  64.8757 295.2354 15.06444979124686","MEAN_MOTION":"15.06444979","PERIOD":"95.589","SITE":"AFETR","MEAN_ANOMALY":"295.2354","DECAY_DATE":null,"MEAN_ELEMENT_THEORY":"SGP4","RA_OF_ASC_NODE":"2.9525","CLASSIFICATION_TYPE":"U","TIME_SYSTEM":"UTC","NORAD_CAT_ID":"47593","MEAN_MOTION_DOT":"0.00026602","OBJECT_ID":"2021-009AX","REF_FRAME":"TEME","GP_ID":"231565191","MEAN_MOTION_DDOT":"0.0000000000000","RCS_SIZE":"LARGE","COUNTRY_CODE":"US","CENTER_NAME":"EARTH","OBJECT_TYPE":"PAYLOAD","TLE_LINE1":"1 47593U 21009AX  23130.79577343  .00026602  00000-0  17959-2 0  9993","APOAPSIS":"547.896","FILE":"3904830"},{"SEMIMAJOR_AXIS":"6925.161","ECCENTRICITY":"0.00008290","OBJECT_NAME":"STARLINK-1999","ARG_OF_PERICENTER":"141.2417","PERIAPSIS":"546.452","LAUNCH_DATE":"2021-02-04","EPHEMERIS_TYPE":"0","ELEMENT_SET_NO":"999","EPOCH":"2023-05-10T18:18:08.415360","SITE":"AFETR","MEAN_ELEMENT_THEORY":"SGP4","DECAY_DATE":null,"MEAN_ANOMALY":"218.8632","BSTAR":"0.00255070000000","INCLINATION":"53.0547","TLE_LINE2":"2 47594  53.0547   3.0986 0000829 141.2417 218.8632 15.06461192124675","REV_AT_EPOCH":"12467","PERIOD":"95.588","MEAN_MOTION":"15.06461192","REF_FRAME":"TEME","OBJECT_ID":"2021-009AY","MEAN_MOTION_DDOT":"0.0000000000000","GP_ID":"231564940","RCS_SIZE":"LARGE","CLASSIFICATION_TYPE":"U","RA_OF_ASC_NODE":"3.0986","TIME_SYSTEM":"UTC","MEAN_MOTION_DOT":"0.00037979","NORAD_CAT_ID":"47594","OBJECT_TYPE":"PAYLOAD","CENTER_NAME":"EARTH","COUNTRY_CODE":"US","APOAPSIS":"547.600","TLE_LINE1":"1 47594U 21009AY  23130.76259740  .00037979  00000-0  25507-2 0  9996","FILE":"3904830"}];
